STARLINK-36491          
1 67310U 26002F   26026.83335647 -.02032683  00000+0 -26860-1 0  9990
2 67310  42.9992 203.9692 0001444 269.0879 352.3118 15.61014065  4690
STARLINK-36495          
1 67311U 26002G   26026.83335647 -.02037800  00000+0 -26936-1 0  9991
2 67311  42.9990 203.9535 0001433 266.7665   0.3853 15.61016059  4848
STARLINK-36485          
1 67312U 26002H   26026.83335647 -.02036565  00000+0 -26917-1 0  9998
2 67312  42.9989 203.9490 0001474 268.6733   0.3946 15.61015620  4698
STARLINK-36445          
1 67313U 26002J   26026.83335647 -.02038079  00000+0 -26936-1 0  9992
2 67313  42.9990 203.9435 0001441 269.3191   1.6621 15.61019330  4843
STARLINK-36476          
1 67314U 26002K   26026.83335647 -.02036094  00000+0 -26910-1 0  9990
2 67314  42.9991 203.9400 0001462 271.1616   1.7398 15.61015227  4699
STARLINK-36463          
1 67315U 26002L   26026.83335647 -.02042014  00000+0 -26996-1 0  9994
2 67315  42.9990 203.9293 0001518 269.4123   7.3243 15.61018206  4741
STARLINK-36461          
1 67316U 26002M   26026.83335647 -.02037077  00000+0 -26924-1 0  9999
2 67316  42.9989 203.9246 0001450 267.4134  11.2401 15.61016142  4841
STARLINK-36450          
1 67317U 26002N   26026.83335647 -.02040746  00000+0 -26975-1 0  9993
2 67317  42.9990 203.9200 0001590 267.6642  12.9056 15.61018965  4844
STARLINK-36498          
1 67318U 26002P   26026.83335647 -.02045441  00000+0 -27047-1 0  9992
2 67318  42.9991 203.9095 0001487 268.9225  15.4840 15.61019709  4749
STARLINK-36470          
1 67319U 26002Q   26026.83335647 -.02036923  00000+0 -26921-1 0  9998
2 67319  42.9991 203.9154 0001469 268.6338  13.8538 15.61016611  4743
STARLINK-36500          
1 67320U 26002R   26026.83335647 -.02042501  00000+0 -27001-1 0  9999
2 67320  42.9989 203.9064 0001464 268.4687  17.8510 15.61020932  4747
STARLINK-36462          
1 67321U 26002S   26026.83335647 -.02035674  00000+0 -26901-1 0  9991
2 67321  42.9989 203.8964 0001643 269.8100  20.3449 15.61015611  4692
