CCSDS_OMM_VERS = 2.0
CREATION_DATE  = 
ORIGINATOR     = 

OBJECT_NAME    = STARLINK-36491
OBJECT_ID      = 2026-002F
CENTER_NAME    = EARTH
REF_FRAME      = TEME
TIME_SYSTEM    = UTC
MEAN_ELEMENT_THEORY = SGP/SGP4

EPOCH          = 2026-01-26T20:00:01.999008
MEAN_MOTION    = 15.61014065
ECCENTRICITY   = .0001444
INCLINATION    = 42.9992
RA_OF_ASC_NODE = 203.9692
ARG_OF_PERICENTER = 269.0879
MEAN_ANOMALY   = 352.3118

EPHEMERIS_TYPE = 0
CLASSIFICATION_TYPE = U
NORAD_CAT_ID   = 67310
ELEMENT_SET_NO = 999
REV_AT_EPOCH   = 469
BSTAR          = -.2686E-1
MEAN_MOTION_DOT = -.2032683E-1
MEAN_MOTION_DDOT = 0

CCSDS_OMM_VERS = 2.0
CREATION_DATE  = 
ORIGINATOR     = 

OBJECT_NAME    = STARLINK-36495
OBJECT_ID      = 2026-002G
CENTER_NAME    = EARTH
REF_FRAME      = TEME
TIME_SYSTEM    = UTC
MEAN_ELEMENT_THEORY = SGP/SGP4

EPOCH          = 2026-01-26T20:00:01.999008
MEAN_MOTION    = 15.61016059
ECCENTRICITY   = .0001433
INCLINATION    = 42.9990
RA_OF_ASC_NODE = 203.9535
ARG_OF_PERICENTER = 266.7665
MEAN_ANOMALY   = 0.3853

EPHEMERIS_TYPE = 0
CLASSIFICATION_TYPE = U
NORAD_CAT_ID   = 67311
ELEMENT_SET_NO = 999
REV_AT_EPOCH   = 484
BSTAR          = -.26936E-1
MEAN_MOTION_DOT = -.20378E-1
MEAN_MOTION_DDOT = 0

CCSDS_OMM_VERS = 2.0
CREATION_DATE  = 
ORIGINATOR     = 

OBJECT_NAME    = STARLINK-36485
OBJECT_ID      = 2026-002H
CENTER_NAME    = EARTH
REF_FRAME      = TEME
TIME_SYSTEM    = UTC
MEAN_ELEMENT_THEORY = SGP/SGP4

EPOCH          = 2026-01-26T20:00:01.999008
MEAN_MOTION    = 15.61015620
ECCENTRICITY   = .0001474
INCLINATION    = 42.9989
RA_OF_ASC_NODE = 203.9490
ARG_OF_PERICENTER = 268.6733
MEAN_ANOMALY   = 0.3946

EPHEMERIS_TYPE = 0
CLASSIFICATION_TYPE = U
NORAD_CAT_ID   = 67312
ELEMENT_SET_NO = 999
REV_AT_EPOCH   = 469
BSTAR          = -.26917E-1
MEAN_MOTION_DOT = -.2036565E-1
MEAN_MOTION_DDOT = 0

CCSDS_OMM_VERS = 2.0
CREATION_DATE  = 
ORIGINATOR     = 

OBJECT_NAME    = STARLINK-36445
OBJECT_ID      = 2026-002J
CENTER_NAME    = EARTH
REF_FRAME      = TEME
TIME_SYSTEM    = UTC
MEAN_ELEMENT_THEORY = SGP/SGP4

EPOCH          = 2026-01-26T20:00:01.999008
MEAN_MOTION    = 15.61019330
ECCENTRICITY   = .0001441
INCLINATION    = 42.9990
RA_OF_ASC_NODE = 203.9435
ARG_OF_PERICENTER = 269.3191
MEAN_ANOMALY   = 1.6621

EPHEMERIS_TYPE = 0
CLASSIFICATION_TYPE = U
NORAD_CAT_ID   = 67313
ELEMENT_SET_NO = 999
REV_AT_EPOCH   = 484
BSTAR          = -.26936E-1
MEAN_MOTION_DOT = -.2038079E-1
MEAN_MOTION_DDOT = 0

CCSDS_OMM_VERS = 2.0
CREATION_DATE  = 
ORIGINATOR     = 

OBJECT_NAME    = STARLINK-36476
OBJECT_ID      = 2026-002K
CENTER_NAME    = EARTH
REF_FRAME      = TEME
TIME_SYSTEM    = UTC
MEAN_ELEMENT_THEORY = SGP/SGP4

EPOCH          = 2026-01-26T20:00:01.999008
MEAN_MOTION    = 15.61015227
ECCENTRICITY   = .0001462
INCLINATION    = 42.9991
RA_OF_ASC_NODE = 203.9400
ARG_OF_PERICENTER = 271.1616
MEAN_ANOMALY   = 1.7398

EPHEMERIS_TYPE = 0
CLASSIFICATION_TYPE = U
NORAD_CAT_ID   = 67314
ELEMENT_SET_NO = 999
REV_AT_EPOCH   = 469
BSTAR          = -.2691E-1
MEAN_MOTION_DOT = -.2036094E-1
MEAN_MOTION_DDOT = 0

CCSDS_OMM_VERS = 2.0
CREATION_DATE  = 
ORIGINATOR     = 

OBJECT_NAME    = STARLINK-36463
OBJECT_ID      = 2026-002L
CENTER_NAME    = EARTH
REF_FRAME      = TEME
TIME_SYSTEM    = UTC
MEAN_ELEMENT_THEORY = SGP/SGP4

EPOCH          = 2026-01-26T20:00:01.999008
MEAN_MOTION    = 15.61018206
ECCENTRICITY   = .0001518
INCLINATION    = 42.9990
RA_OF_ASC_NODE = 203.9293
ARG_OF_PERICENTER = 269.4123
MEAN_ANOMALY   = 7.3243

EPHEMERIS_TYPE = 0
CLASSIFICATION_TYPE = U
NORAD_CAT_ID   = 67315
ELEMENT_SET_NO = 999
REV_AT_EPOCH   = 474
BSTAR          = -.26996E-1
MEAN_MOTION_DOT = -.2042014E-1
MEAN_MOTION_DDOT = 0

CCSDS_OMM_VERS = 2.0
CREATION_DATE  = 
ORIGINATOR     = 

OBJECT_NAME    = STARLINK-36461
OBJECT_ID      = 2026-002M
CENTER_NAME    = EARTH
REF_FRAME      = TEME
TIME_SYSTEM    = UTC
MEAN_ELEMENT_THEORY = SGP/SGP4

EPOCH          = 2026-01-26T20:00:01.999008
MEAN_MOTION    = 15.61016142
ECCENTRICITY   = .000145
INCLINATION    = 42.9989
RA_OF_ASC_NODE = 203.9246
ARG_OF_PERICENTER = 267.4134
MEAN_ANOMALY   = 11.2401

EPHEMERIS_TYPE = 0
CLASSIFICATION_TYPE = U
NORAD_CAT_ID   = 67316
ELEMENT_SET_NO = 999
REV_AT_EPOCH   = 484
BSTAR          = -.26924E-1
MEAN_MOTION_DOT = -.2037077E-1
MEAN_MOTION_DDOT = 0

CCSDS_OMM_VERS = 2.0
CREATION_DATE  = 
ORIGINATOR     = 

OBJECT_NAME    = STARLINK-36450
OBJECT_ID      = 2026-002N
CENTER_NAME    = EARTH
REF_FRAME      = TEME
TIME_SYSTEM    = UTC
MEAN_ELEMENT_THEORY = SGP/SGP4

EPOCH          = 2026-01-26T20:00:01.999008
MEAN_MOTION    = 15.61018965
ECCENTRICITY   = .000159
INCLINATION    = 42.9990
RA_OF_ASC_NODE = 203.9200
ARG_OF_PERICENTER = 267.6642
MEAN_ANOMALY   = 12.9056

EPHEMERIS_TYPE = 0
CLASSIFICATION_TYPE = U
NORAD_CAT_ID   = 67317
ELEMENT_SET_NO = 999
REV_AT_EPOCH   = 484
BSTAR          = -.26975E-1
MEAN_MOTION_DOT = -.2040746E-1
MEAN_MOTION_DDOT = 0

CCSDS_OMM_VERS = 2.0
CREATION_DATE  = 
ORIGINATOR     = 

OBJECT_NAME    = STARLINK-36498
OBJECT_ID      = 2026-002P
CENTER_NAME    = EARTH
REF_FRAME      = TEME
TIME_SYSTEM    = UTC
MEAN_ELEMENT_THEORY = SGP/SGP4

EPOCH          = 2026-01-26T20:00:01.999008
MEAN_MOTION    = 15.61019709
ECCENTRICITY   = .0001487
INCLINATION    = 42.9991
RA_OF_ASC_NODE = 203.9095
ARG_OF_PERICENTER = 268.9225
MEAN_ANOMALY   = 15.4840

EPHEMERIS_TYPE = 0
CLASSIFICATION_TYPE = U
NORAD_CAT_ID   = 67318
ELEMENT_SET_NO = 999
REV_AT_EPOCH   = 474
BSTAR          = -.27047E-1
MEAN_MOTION_DOT = -.2045441E-1
MEAN_MOTION_DDOT = 0

CCSDS_OMM_VERS = 2.0
CREATION_DATE  = 
ORIGINATOR     = 

OBJECT_NAME    = STARLINK-36470
OBJECT_ID      = 2026-002Q
CENTER_NAME    = EARTH
REF_FRAME      = TEME
TIME_SYSTEM    = UTC
MEAN_ELEMENT_THEORY = SGP/SGP4

EPOCH          = 2026-01-26T20:00:01.999008
MEAN_MOTION    = 15.61016611
ECCENTRICITY   = .0001469
INCLINATION    = 42.9991
RA_OF_ASC_NODE = 203.9154
ARG_OF_PERICENTER = 268.6338
MEAN_ANOMALY   = 13.8538

EPHEMERIS_TYPE = 0
CLASSIFICATION_TYPE = U
NORAD_CAT_ID   = 67319
ELEMENT_SET_NO = 999
REV_AT_EPOCH   = 474
BSTAR          = -.26921E-1
MEAN_MOTION_DOT = -.2036923E-1
MEAN_MOTION_DDOT = 0

CCSDS_OMM_VERS = 2.0
CREATION_DATE  = 
ORIGINATOR     = 

OBJECT_NAME    = STARLINK-36500
OBJECT_ID      = 2026-002R
CENTER_NAME    = EARTH
REF_FRAME      = TEME
TIME_SYSTEM    = UTC
MEAN_ELEMENT_THEORY = SGP/SGP4

EPOCH          = 2026-01-26T20:00:01.999008
MEAN_MOTION    = 15.61020932
ECCENTRICITY   = .0001464
INCLINATION    = 42.9989
RA_OF_ASC_NODE = 203.9064
ARG_OF_PERICENTER = 268.4687
MEAN_ANOMALY   = 17.8510

EPHEMERIS_TYPE = 0
CLASSIFICATION_TYPE = U
NORAD_CAT_ID   = 67320
ELEMENT_SET_NO = 999
REV_AT_EPOCH   = 474
BSTAR          = -.27001E-1
MEAN_MOTION_DOT = -.2042501E-1
MEAN_MOTION_DDOT = 0

CCSDS_OMM_VERS = 2.0
CREATION_DATE  = 
ORIGINATOR     = 

OBJECT_NAME    = STARLINK-36462
OBJECT_ID      = 2026-002S
CENTER_NAME    = EARTH
REF_FRAME      = TEME
TIME_SYSTEM    = UTC
MEAN_ELEMENT_THEORY = SGP/SGP4

EPOCH          = 2026-01-26T20:00:01.999008
MEAN_MOTION    = 15.61015611
ECCENTRICITY   = .0001643
INCLINATION    = 42.9989
RA_OF_ASC_NODE = 203.8964
ARG_OF_PERICENTER = 269.8100
MEAN_ANOMALY   = 20.3449

EPHEMERIS_TYPE = 0
CLASSIFICATION_TYPE = U
NORAD_CAT_ID   = 67321
ELEMENT_SET_NO = 999
REV_AT_EPOCH   = 469
BSTAR          = -.26901E-1
MEAN_MOTION_DOT = -.2035674E-1
MEAN_MOTION_DDOT = 0

